[{"OBJECT_NAME":"STARLINK-1506","OBJECT_ID":"2020-038T","EPOCH":"2026-03-09T15:50:48.887520","MEAN_MOTION":15.26134655,"ECCENTRICITY":0.00025141,"INCLINATION":53.0733,"RA_OF_ASC_NODE":202.5028,"ARG_OF_PERICENTER":227.7836,"MEAN_ANOMALY":132.2949,"EPHEMERIS_TYPE":0,"CLASSIFICATION_TYPE":"U","NORAD_CAT_ID":45747,"ELEMENT_SET_NO":999,"REV_AT_EPOCH":31668,"BSTAR":0.0009799682,"MEAN_MOTION_DOT":0.0002538,"MEAN_MOTION_DDOT":0},{"OBJECT_NAME":"STARLINK-34038","OBJECT_ID":"2025-095X","EPOCH":"2026-03-09T08:06:11.425536","MEAN_MOTION":15.27594626,"ECCENTRICITY":7.303e-5,"INCLINATION":42.9999,"RA_OF_ASC_NODE":178.2312,"ARG_OF_PERICENTER":258.9451,"MEAN_ANOMALY":101.1318,"EPHEMERIS_TYPE":0,"CLASSIFICATION_TYPE":"U","NORAD_CAT_ID":63911,"ELEMENT_SET_NO":999,"REV_AT_EPOCH":4772,"BSTAR":0.00082242208,"MEAN_MOTION_DOT":0.00022448,"MEAN_MOTION_DDOT":0}]
